ONEWEB-0461             
1 51649U 22012AD  25200.40085327 -.00000012  00000+0 -64192-4 0  9990
2 51649  87.9039  72.0875 0001738  77.7240 282.4086 13.17648357170067
ONEWEB-0463             
1 51650U 22012AE  25200.61010342 -.00000035  00000+0 -12215-3 0  9993
2 51650  87.9043  72.1097 0001755  83.5496 276.5835 13.17648985169878
ONEWEB-0464             
1 51651U 22012AF  25200.41965853  .00000501  00000+0  13995-2 0  9999
2 51651  87.8819 102.6573 0002211  76.8132 283.3242 13.10370748165749
ONEWEB-0468             
1 51652U 22012AG  25200.42628882  .00000186  00000+0  49530-3 0  9993
2 51652  87.8816 102.6475 0001995  77.3420 282.7930 13.10371162165728
ONEWEB-0473             
1 51653U 22012AH  25200.48772230  .00000650  00000+0  18269-2 0  9997
2 51653  87.8817 102.6393 0002083  78.1232 282.0128 13.10373126165733
ONEWEB-0474             
1 51654U 22012AJ  25200.25035004  .00000651  00000+0  18292-2 0  9991
2 51654  87.8819 102.6461 0002134  80.6410 279.4959 13.10374820165694
ONEWEB-0475             
1 51655U 22012AK  25200.62191933  .00000041  00000+0  73468-4 0  9998
2 51655  87.9046  72.0876 0002390  97.3553 262.7850 13.17647967169898
ONEWEB-0490             
1 54113U 22138A   25200.52630254  .00000001  00000+0 -29485-4 0  9999
2 54113  87.9219  11.0773 0002039  89.5543 270.5823 13.19725554132958
